QIANFAN-33              
1 61566U 24185Q   26008.55774373  .00000424  00000+0  29710-3 0  9992
2 61566  88.9781  75.8223 0005549 228.7498 131.3202 13.96578660 72908
QIANFAN-34              
1 61567U 24185R   26008.55588296  .00000430  00000+0  27170-3 0  9995
2 61567  88.9759  75.3506 0004209 233.6323 126.4469 14.02334399 73118
QIANFAN-35              
1 61568U 24185S   26008.60554047  .00000908  00000+0  36005-3 0  9996
2 61568  88.9782  73.7298 0006556 177.7667 182.3558 14.28022287 74019
QIANFAN-36              
1 61569U 24185T   26008.60939341  .00000200  00000+0  27042-3 0  9997
2 61569  88.9767  78.2501 0004786 340.9590  19.1385 13.55597958 71565
QIANFAN-37              
1 62238U 24232B   26008.58159901  .00000041  00000+0  44941-4 0  9998
2 62238  88.9998  38.6178 0002250  78.1130 282.0274 13.50982178102794
QIANFAN-38              
1 62239U 24232C   26008.60630723  .00000039  00000+0  41295-4 0  9994
2 62239  89.0005  38.5329 0016390 115.0751 245.2104 13.50980021102858
QIANFAN-39              
1 62240U 24232D   26008.59116849  .00000160  00000+0  61569-4 0  9993
2 62240  88.9998  34.2357 0015848 359.2239   0.8926 14.25410228105213
QIANFAN-40              
1 62241U 24232E   26008.63922527  .00000042  00000+0  45697-4 0  9990
2 62241  89.0032  38.1215 0015312 121.8745 238.3899 13.50980112103229
